SYRACUSE 3A             
1 28885U 05041B   18203.87706135  .00000116  00000-0  00000-0 0  9990
2 28885   0.0226  82.0356 0003365  49.5982 171.6478  1.00273727 46802
INMARSAT 4-F2           
1 28899U 05044A   18203.04434942 -.00000004  00000-0  00000-0 0  9998
2 28899   2.6871  19.3833 0003502 105.0578 255.1566  1.00272837 46577
TELKOM 2                
1 28902U 05046A   18203.89895757 -.00000151  00000-0  00000-0 0  9996
2 28902   0.0091  50.5302 0001032  46.7471 323.9301  1.00271845 46495
SPACEWAY 2              
1 28903U 05046B   18203.55968887 -.00000140  00000-0  00000+0 0  9992
2 28903   0.0181 172.4046 0000263 299.7053 290.5509  1.00273721 46557
INSAT-4A                
1 28911U 05049A   18202.93702051 -.00000179  00000-0  00000-0 0  9997
2 28911   0.0604 273.1462 0001540 296.0984 150.7309  1.00271793 16772
METEOSAT-9 (MSG-2)      
1 28912U 05049B   18203.86842500  .00000005  00000-0  00000-0 0  9992
2 28912   2.9923  71.7155 0001288   9.6415 175.4011  1.00265554 46095
EUTELSAT 172A (GE-23)   
1 28924U 05052A   18203.83056465 -.00000003  00000-0  00000-0 0  9992
2 28924   0.0647  26.8843 0005950  91.8717 294.7495  1.00273350 46042
ECHOSTAR 10             
1 28935U 06003A   18203.81855064 -.00000068  00000-0  00000-0 0  9992
2 28935   0.0209 126.0767 0001566 344.2472  14.6351  1.00273119 45545
HIMAWARI-7 (MTSAT-2)    
1 28937U 06004A   18203.89660219 -.00000255  00000-0  00000-0 0  9997
2 28937   0.0263  92.4223 0003930  40.4243 275.5597  1.00269155 45532
SPAINSAT                
1 28945U 06007A   18203.25021696 -.00000229  00000-0  00000-0 0  9990
2 28945   0.0467 230.1280 0003727 264.1396 225.7474  1.00270602 45281
EUTELSAT HOT BIRD 13E   
1 28946U 06007B   18203.13117847  .00000073  00000-0  00000-0 0  9998
2 28946   0.0465 222.2781 0006118 279.3198 218.4301  1.00270978 45355
JCSAT-5A                
1 29045U 06010A   18203.95680111 -.00000341  00000-0  00000-0 0  9991
2 29045   0.0132  63.7895 0002098  50.0666 303.2844  1.00268959 44819
ASTRA 1KR               
1 29055U 06012A   18203.92757694  .00000107  00000-0  00000-0 0  9991
2 29055   0.0583 259.4170 0002872 265.8899 128.3966  1.00272838 16792
GOES 13                 
1 29155U 06018A   18203.33269651 -.00000296  00000-0  00000-0 0  9994
2 29155   0.0865 257.1481 0007531 163.3263 299.5851  1.00268673 14435
EUTELSAT 113 WEST A     
1 29162U 06020A   18203.48009709 -.00000050  00000-0  00000-0 0  9995
2 29162   0.0274 129.2317 0002940 358.4738 232.3058  1.00271889 44538
THAICOM 5               
1 29163U 06020B   18203.88334234 -.00000134  00000-0  00000-0 0  9997
2 29163   0.0468 251.7526 0002932 250.4330 194.8595  1.00273392 44558
GALAXY 16 (G-16)        
1 29236U 06023A   18203.84792459 -.00000139  00000-0  00000-0 0  9999
2 29236   0.0313 277.8782 0002849 197.9537  30.9447  1.00271752 44297
EUTELSAT HOT BIRD 13B   
1 29270U 06032A   18203.92757694  .00000074  00000-0  00000-0 0  9995
2 29270   0.0665 345.5169 0003035 112.7226 189.2640  1.00271274 18388
JCSAT-3A                
1 29272U 06033A   18203.60743966 -.00000358  00000-0  00000-0 0  9996
2 29272   0.0372 256.3428 0001913 238.4962 152.1144  1.00271671 18792
SYRACUSE 3B             
1 29273U 06033B   18203.91438250 -.00000056  00000-0  00000-0 0  9993
2 29273   0.0163  64.0844 0004499  45.1339 155.3379  1.00271564 43772
KOREASAT 5 (MUGUNGWHA 5)
1 29349U 06034A   18203.89023397 -.00000371  00000-0  00000-0 0  9997
2 29349   0.0263 104.2882 0001921  37.0410 232.7774  1.00272805 12373
DIRECTV 9S              
1 29494U 06043A   18203.84748841 -.00000126  00000-0  00000-0 0  9999
2 29494   0.0211 124.0783 0003469 357.4722  22.9746  1.00272492 22462
OPTUS D1                
1 29495U 06043B   18203.89956821 -.00000123  00000-0  00000-0 0  9991
2 29495   0.0152  42.4705 0003826  78.3302 303.6254  1.00270498 43172
XM-4 (BLUES)            
1 29520U 06049A   18203.82340984 -.00000034  00000-0  00000-0 0  9997
2 29520   0.0437 232.2625 0000203 227.2547  22.1246  1.00268645 22542
BADR-4                  
1 29526U 06051A   18203.87287403  .00000132  00000-0  00000-0 0  9995
2 29526   0.0427 353.5142 0001872  88.8254 198.4293  1.00273918 22343
FENGYUN 2D              
1 29640U 06053A   18203.90541458 -.00000377  00000-0  10000-3 0  9997
2 29640   5.1801  62.4657 0005585 288.4808  39.3396  1.00275728 42617
WILDBLUE-1              
1 29643U 06054A   18203.63052882 -.00000062  00000-0  00000-0 0  9996
2 29643   0.0043  82.4188 0002012  33.7687 299.9407  1.00272301 24858
AMC-18                  
1 29644U 06054B   18203.76819104  .00000092  00000-0  00000-0 0  9991
2 29644   0.0730 276.0507 0002926 181.1517 340.7933  1.00270516 42611
MEASAT-3                
1 29648U 06056A   18203.88595941 -.00000254  00000-0  00000-0 0  9991
2 29648   0.0467 128.3863 0003666 356.8730 225.7578  1.00271382 21522
INSAT-4B                
1 30793U 07007A   18203.89425834 -.00000367  00000-0  00000-0 0  9990
2 30793   0.0530 107.4719 0003797   3.7757 262.5562  1.00273886 13261
SKYNET 5A               
1 30794U 07007B   18203.88665730 -.00000284  00000-0  00000-0 0  9999
2 30794   0.0657  22.8796 0003815 109.3603 222.7329  1.00270927 41758
ANIK F3                 
1 31102U 07009A   18203.82340984 -.00000013  00000-0  00000-0 0  9990
2 31102   0.0128  76.4765 0002342  25.6769  16.0613  1.00271229 41399
ASTRA 1L                
1 31306U 07016A   18203.87147826  .00000107  00000-0  00000-0 0  9992
2 31306   0.0678 297.7107 0000735 161.2405 174.5042  1.00272837 16137
GALAXY 17 (G-17)        
1 31307U 07016B   18203.78313162 -.00000186  00000-0  00000-0 0  9999
2 31307   0.0258 359.7879 0003631 121.3210  10.2812  1.00271643 41139
ZHONGXING-6B            
1 31800U 07031A   18203.89067015 -.00000374  00000-0  00000-0 0  9998
2 31800   0.0197  55.5348 0003068  65.2750 255.9040  1.00271535 40499
DIRECTV 10              
1 31862U 07032A   18203.45196431 -.00000115  00000-0  00000-0 0  9997
2 31862   0.0466 239.4315 0000367 290.2760 190.2778  1.00272326 16674
SPACEWAY 3              
1 32018U 07036A   18203.56161653 -.00000164  00000-0  00000-0 0  9999
2 32018   0.0163 172.0497 0000388 303.8283 291.5981  1.00274282 40186
BSAT-3A                 
1 32019U 07036B   18203.85998170 -.00000363  00000-0  00000-0 0  9995
2 32019   0.0556 232.9496 0003169 301.7315 185.3071  1.00272243 21578
INSAT-4CR               
1 32050U 07037A   18203.86287865  .00000112  00000-0  00000-0 0  9995
2 32050   0.0787 102.2930 0001123  21.6960 175.0079  1.00274514 22447
OPTUS D2                
1 32252U 07044A   18203.89799796 -.00000196  00000-0  00000-0 0  9994
2 32252   0.0166  47.9175 0003942  72.2520 295.7026  1.00270083 39620
INTELSAT 11 (IS-11)     
1 32253U 07044B   18203.78729567 -.00000281  00000-0  00000-0 0  9997
2 32253   0.0578 237.1296 0001634 238.6213  65.1449  1.00271801 39669
STAR ONE C1             
1 32293U 07056A   18203.34715239 -.00000289  00000-0  00000-0 0  9995
2 32293   0.0239  94.1039 0002622  28.4204 237.4856  1.00272131 22841
SKYNET 5B               
1 32294U 07056B   18203.87269956  .00000129  00000-0  00000-0 0  9996
2 32294   0.0694  14.3364 0003501 116.7919 148.6597  1.00272644 39250
ASTRA 4A (SIRIUS 4)     
1 32299U 07057A   18203.91368806  .00000020  00000-0  00000-0 0  9991
2 32299   0.0402 292.4502 0003009 182.6048 159.2696  1.00273439 22751
HORIZONS-2              
1 32388U 07063B   18203.88456363 -.00000195  00000-0  00000-0 0  9993
2 32388   0.0034 348.2198 0003234 128.0889 227.5348  1.00272138 38912
THURAYA-3               
1 32404U 08001A   18203.87210898 -.00000310  00000-0  00000-0 0  9994
2 32404   3.8946 358.6248 0004935 114.8651 239.5295  1.00271981 38575
EXPRESS-AM33            
1 32478U 08003A   18203.88691900 -.00000293  00000-0  00000-0 0  9995
2 32478   0.0464 237.5894 0000314  36.8401  81.9001  1.00270273 38662
THOR 5                  
1 32487U 08006A   18203.91438250 -.00000022  00000-0  00000-0 0  9999
2 32487   0.0471 232.7365 0002434 246.6561 149.6167  1.00271828 38362
KIZUNA (WINDS)          
1 32500U 08007A   18203.89546392 -.00000273  00000-0  00000-0 0  9998
2 32500   1.6888  88.0027 0002231  24.2611 293.6861  1.00271564 38093
AMC-14                  
1 32708U 08011A   18203.79933421  .00000067  00000-0  00000-0 0  9995
2 32708  19.8212  56.9662 0040511   5.3380 183.9069  1.00275062 39156
DIRECTV 11              
1 32729U 08013A   18203.84792459 -.00000138  00000-0  00000-0 0  9990
2 32729   0.0245 192.6984 0000274 335.2399 338.6586  1.00272415 16673
ICO G1                  
1 32763U 08016A   18203.56196546 -.00000184  00000-0  00000-0 0  9996
2 32763   3.6970   0.5891 0002419 124.9960 284.1258  1.00272592 37646
VINASAT-1               
1 32767U 08018A   18203.79884245 -.00000341  00000-0  00000-0 0  9992
2 32767   0.0126 350.0351 0001754 133.2724 236.6942  1.00271747 37676
STAR ONE C2             
1 32768U 08018B   18203.36101010 -.00000278  00000-0  00000-0 0  9997
2 32768   0.0414 230.7889 0002481 271.4609 217.7522  1.00278479 37608
TIANLIAN 1-01           
1 32779U 08019A   18203.96352049 -.00000153  00000-0  10000-3 0  9992
2 32779   2.8498  74.2534 0031645 239.5532  53.7281  1.00272802 37529
AMOS-3                  
1 32794U 08022A   18203.79505966 -.00000047  00000-0  00000-0 0  9990
2 32794   0.0357 201.3264 0001384 285.9158  95.3284  1.00273588 37504
GALAXY 18 (G-18)        
1 32951U 08024A   18203.50787793  .00000012  00000-0  00000-0 0  9997
2 32951   0.0174  94.1369 0003283  28.9724 236.9070  1.00272331 16951
CHINASAT 9 (ZX 9)       
1 33051U 08028A   18203.81021406 -.00000260  00000-0  00000-0 0  9995
2 33051   0.0109  90.8294 0004284  32.7376 200.7928  1.00270246 37068
SKYNET 5C               
1 33055U 08030A   18203.94563309 -.00000152  00000-0  00000-0 0  9999
2 33055   0.0585  11.3674 0004400 119.0003 132.8712  1.00272152 37015
